NORAD_CAT_ID,OBJECT_NAME,OBJECT_TYPE,EPOCH,MEAN_MOTION,ECCENTRICITY,INCLINATION,RA_OF_ASC_NODE,ARG_OF_PERICENTER,MEAN_ANOMALY,BSTAR,MEAN_MOTION_DOT,MEAN_MOTION_DDOT,TLE_LINE0,TLE_LINE1,TLE_LINE2,SEMIMAJOR_AXIS,PERIOD,APOGEE,PERIGEE,DECAYED
27216,PSLV DEB,DEBRIS,2021-06-26 00:20:59,15.04924496,0.0030331,98.2363,195.8778,303.4654,120.6348,0.00014688,2.028e-05,0.0,0 PSLV DEB,1 27216U 01049FL  21177.01457656  .00002028  00000-0  14688-3 0  9996,2 27216  98.2363 195.8778 0030331 303.4654 120.6348 15.04924496 58305,6929.874,95.686,572.758,530.72,0.0
27216,PSLV DEB,DEBRIS,2021-06-27 00:08:08,15.0492899,0.0030281999999999996,98.236,196.9341,300.0598,90.1415,0.00015233,2.106e-05,0.0,0 PSLV DEB,1 27216U 01049FL  21178.00565722  .00002106  00000-0  15233-3 0  9994,2 27216  98.2360 196.9341 0030282 300.0598  90.1415 15.04928990 58461,6929.861,95.686,572.711,530.741,0.0
27216,PSLV DEB,DEBRIS,2021-06-27 21:16:53,15.0493288,0.0030166,98.2364,197.8742,296.9261,183.7447,0.00015289,2.114e-05,0.0,0 PSLV DEB,1 27216U 01049FL  21178.88672633  .00002114  00000-0  15289-3 0  9990,2 27216  98.2364 197.8742 0030166 296.9261 183.7447 15.04932880 58592,6929.849,95.685,572.618,530.809,0.0
27216,PSLV DEB,DEBRIS,2021-06-28 13:23:03,15.04935742,0.0030118000000000002,98.2366,198.5896,294.5757,218.92,0.00015138,2.092e-05,0.0,0 PSLV DEB,1 27216U 01049FL  21179.55767998  .00002092  00000-0  15138-3 0  9992,2 27216  98.2366 198.5896 0030118 294.5757 218.9200 15.04935742 58692,6929.84,95.685,572.576,530.8340000000002,0.0
27216,PSLV DEB,DEBRIS,2021-06-29 00:00:31,15.04937739,0.0030096999999999997,98.2366,199.0617,293.0884,97.2653,0.00015001,2.073e-05,0.0,0 PSLV DEB,1 27216U 01049FL  21180.00035934  .00002073  00000-0  15001-3 0  9990,2 27216  98.2366 199.0617 0030097 293.0884  97.2653 15.04937739 58755,6929.834,95.685,572.556,530.842,0.0
27216,PSLV DEB,DEBRIS,2021-06-29 19:48:34,15.04941458,0.0030015999999999997,98.2366,199.9415,290.1609,247.3332,0.00015062,2.082e-05,0.0,0 PSLV DEB,1 27216U 01049FL  21180.82540139  .00002082  00000-0  15062-3 0  9995,2 27216  98.2366 199.9415 0030016 290.1609 247.3332 15.04941458 58883,6929.821999999999,95.685,572.488,530.887,0.0
27216,PSLV DEB,DEBRIS,2021-06-30 07:49:51,15.04942852,0.0029983,98.2368,200.4755,288.3957,81.1278,0.00014003,1.93e-05,0.0,0 PSLV DEB,1 27216U 01049FL  21181.32628885  .00001930  00000-0  14003-3 0  9991,2 27216  98.2368 200.4755 0029983 288.3957  81.1278 15.04942852 58956,6929.818,95.685,572.461,530.905,0.0
27216,PSLV DEB,DEBRIS,2021-06-30 21:05:37,15.04946667,0.0029942,98.2368,201.0648,286.4746,195.1566,0.0001538,2.127e-05,0.0,0 PSLV DEB,1 27216U 01049FL  21181.87890226  .00002127  00000-0  15380-3 0  9999,2 27216  98.2368 201.0648 0029942 286.4746 195.1566 15.04946667 59049,6929.806,95.684,572.4209999999998,530.922,0.0
27216,PSLV DEB,DEBRIS,2021-07-01 13:11:02,15.04949567,0.0029893,98.2369,201.7798,284.1315,227.5336,0.00015201,2.102e-05,0.0,0 PSLV DEB,1 27216U 01049FL  21182.54933428  .00002102  00000-0  15201-3 0  9991,2 27216  98.2369 201.7798 0029893 284.1315 227.5336 15.04949567 59143,6929.797,95.684,572.378,530.947,0.0
27216,PSLV DEB,DEBRIS,2021-07-01 14:40:06,15.04949843,0.0029888000000000002,98.2369,201.8457,283.9203,202.6543,0.00015194,2.101e-05,0.0,0 PSLV DEB,1 27216U 01049FL  21182.61118872  .00002101  00000-0  15194-3 0  9997,2 27216  98.2369 201.8457 0029888 283.9203 202.6543 15.04949843 59155,6929.797,95.684,572.373,530.95,0.0
27216,PSLV DEB,DEBRIS,2021-07-02 13:07:08,15.04953253,0.0029826,98.2369,202.8433,280.6415,230.8574,0.00014319,1.976e-05,0.0,0 PSLV DEB,1 27216U 01049FL  21183.54662892  .00001976  00000-0  14319-3 0  9993,2 27216  98.2369 202.8433 0029826 280.6415 230.8574 15.04953253 59293,6929.786,95.684,572.32,530.982,0.0
27216,PSLV DEB,DEBRIS,2021-07-02 20:58:12,15.04954854,0.0029808000000000005,98.2368,203.1921,279.4917,203.2079,0.00014503,2.002e-05,0.0,0 PSLV DEB,1 27216U 01049FL  21183.87375091  .00002002  00000-0  14503-3 0  9997,2 27216  98.2368 203.1921 0029808 279.4917 203.2079 15.04954854 59349,6929.781,95.684,572.303,530.99,0.0
27216,PSLV DEB,DEBRIS,2021-07-03 13:03:38,15.04956922,0.0029769,98.2369,203.9071,277.1279,235.6846,0.00013519,1.861e-05,0.0,0 PSLV DEB,1 27216U 01049FL  21184.54419406  .00001861  00000-0  13519-3 0  9999,2 27216  98.2369 203.9071 0029769 277.1279 235.6846 15.04956922 59446,6929.775,95.684,572.269,531.011,0.0
27216,PSLV DEB,DEBRIS,2021-07-03 20:54:22,15.04958057,0.0029752,98.2368,204.2556,275.9955,206.7951,0.00013294,1.829e-05,0.0,0 PSLV DEB,1 27216U 01049FL  21184.87108975  .00001829  00000-0  13294-3 0  9995,2 27216  98.2368 204.2556 0029752 275.9955 206.7951 15.04958057 59498,6929.771,95.684,572.254,531.019,0.0
27216,PSLV DEB,DEBRIS,2021-07-04 07:35:18,15.04959169,0.0029741999999999998,98.2367,204.7303,274.3993,98.3756,0.00012493,1.715e-05,0.0,0 PSLV DEB,1 27216U 01049FL  21185.31618745  .00001715  00000-0  12493-3 0  9990,2 27216  98.2367 204.7303 0029742 274.3993  98.3756 15.04959169 59556,6929.768,95.684,572.244,531.023,0.0
27216,PSLV DEB,DEBRIS,2021-07-04 14:29:27,15.04960331,0.0029734,98.2367,205.037,273.3852,216.6279,0.00012396,1.701e-05,0.0,0 PSLV DEB,1 27216U 01049FL  21185.60379162  .00001701  00000-0  12396-3 0  9996,2 27216  98.2367 205.0370 0029734 273.3852 216.6279 15.04960331 59602,6929.764,95.684,572.234,531.024,0.0
27216,PSLV DEB,DEBRIS,2021-07-05 14:24:23,15.04963517,0.0029712,98.2366,206.0996,269.8831,215.6084,0.00011525,1.576e-05,0.0,0 PSLV DEB,1 27216U 01049FL  21186.60027450  .00001576  00000-0  11525-3 0  9990,2 27216  98.2366 206.0996 0029712 269.8831 215.6084 15.04963517 59757,6929.755,95.68299999999999,572.2090000000002,531.03,0.0
27216,PSLV DEB,DEBRIS,2021-07-05 20:46:51,15.04964222,0.0029706,98.2366,206.3829,268.9546,214.6064,0.00011142,1.521e-05,0.0,0 PSLV DEB,1 27216U 01049FL  21186.86586896  .00001521  00000-0  11142-3 0  9997,2 27216  98.2366 206.3829 0029706 268.9546 214.6064 15.04964222 59796,6929.753000000002,95.68299999999999,572.203,531.0319999999998,0.0
27216,PSLV DEB,DEBRIS,2021-07-06 12:52:09,15.04966072,0.00297,98.2364,207.0977,266.5807,246.6291,0.00010196,1.386e-05,0.0,0 PSLV DEB,1 27216U 01049FL  21187.53622156  .00001386  00000-0  10196-3 0  9999,2 27216  98.2364 207.0977 0029700 266.5807 246.6291 15.04966072 59897,6929.7469999999985,95.68299999999999,572.193,531.03,0.0
27216,PSLV DEB,DEBRIS,2021-07-06 20:43:05,15.0496693,0.0029704,98.2364,207.4464,265.4352,218.5096,9.868700000000001e-05,1.339e-05,0.0,0 PSLV DEB,1 27216U 01049FL  21187.86325497  .00001339  00000-0  98687-4 0  9993,2 27216  98.2364 207.4464 0029704 265.4352 218.5096 15.04966930 59949,6929.744000000002,95.68299999999999,572.193,531.025,0.0
27216,PSLV DEB,DEBRIS,2021-07-07 19:17:17,15.04969018,0.0029709,98.2361,208.4492,262.1091,273.7823,8.454e-05,1.137e-05,0.0,0 PSLV DEB,1 27216U 01049FL  21188.80367475  .00001137  00000-0  84540-4 0  9999,2 27216  98.2361 208.4492 0029709 262.1091 273.7823 15.04969018 60085,6929.738,95.68299999999999,572.19,531.015,0.0
27216,PSLV DEB,DEBRIS,2021-07-08 12:44:11,15.04971104,0.0029736999999999997,98.236,209.2244,259.5574,252.8064,8.191100000000001e-05,1.099e-05,0.0,0 PSLV DEB,1 27216U 01049FL  21189.53069164  .00001099  00000-0  81911-4 0  9990,2 27216  98.2360 209.2244 0029737 259.5574 252.8064 15.04971104 60191,6929.731,95.68299999999999,572.203,530.989,0.0
27216,PSLV DEB,DEBRIS,2021-07-09 12:40:27,15.04972691,0.0029782,98.2357,210.2879,256.0503,256.8181,6.7731e-05,8.96e-06,0.0,0 PSLV DEB,1 27216U 01049FL  21190.52809618  .00000896  00000-0  67731-4 0  9995,2 27216  98.2357 210.2879 0029782 256.0503 256.8181 15.04972691 60340,6929.727,95.68299999999999,572.23,530.953,0.0
27216,PSLV DEB,DEBRIS,2021-07-09 20:31:46,15.04973159,0.0029803,98.2356,210.6369,254.9067,230.1441,6.4012e-05,8.43e-06,0.0,0 PSLV DEB,1 27216U 01049FL  21190.85539558  .00000843  00000-0  64012-4 0  9995,2 27216  98.2356 210.6369 0029803 254.9067 230.1441 15.04973159 60392,6929.725,95.68299999999999,572.243,530.937,0.0
27216,PSLV DEB,DEBRIS,2021-07-10 12:36:57,15.04974723,0.0029842,98.2356,211.3516,252.5683,261.6961,6.372e-05,8.39e-06,0.0,0 PSLV DEB,1 27216U 01049FL  21191.52566427  .00000839  00000-0  63720-4 0  9995,2 27216  98.2356 211.3516 0029842 252.5683 261.6961 15.04974723 60490,6929.72,95.68299999999999,572.265,530.906,0.0
27216,PSLV DEB,DEBRIS,2021-07-11 00:57:30,15.04975525,0.0029879999999999998,98.2355,211.8999,250.7866,168.0621,6.0556e-05,7.94e-06,0.0,0 PSLV DEB,1 27216U 01049FL  21192.03994073  .00000794  00000-0  60556-4 0  9998,2 27216  98.2355 211.8999 0029880 250.7866 168.0621 15.04975525 60577,6929.718000000003,95.68299999999999,572.289,530.877,0.0
27216,PSLV DEB,DEBRIS,2021-07-11 07:21:55,15.04975335,0.0029901,98.2355,212.1845,249.8504,174.4059,5.1682e-05,6.67e-06,0.0,0 PSLV DEB,1 27216U 01049FL  21192.30688867  .00000667  00000-0  51682-4 0  9998,2 27216  98.2355 212.1845 0029901 249.8504 174.4059 15.04975335 60613,6929.718000000003,95.68299999999999,572.304,530.863,0.0
27216,PSLV DEB,DEBRIS,2021-07-12 07:17:56,15.04977979,0.0029977,98.2354,213.2478,246.4035,177.4374,6.4655e-05,8.53e-06,0.0,0 PSLV DEB,1 27216U 01049FL  21193.30412102  .00000853  00000-0  64655-4 0  9997,2 27216  98.2354 213.2478 0029977 246.4035 177.4374 15.04977979 60766,6929.71,95.682,572.3480000000002,530.802,0.0
27216,PSLV DEB,DEBRIS,2021-07-12 13:58:06,15.04978477,0.0030001,98.2354,213.5441,245.4344,243.1246,6.5213e-05,8.61e-06,0.0,0 PSLV DEB,1 27216U 01049FL  21193.58202245  .00000861  00000-0  65213-4 0  9992,2 27216  98.2354 213.5441 0030001 245.4344 243.1246 15.04978477 60809,6929.709,95.682,572.364,530.784,0.0
27216,PSLV DEB,DEBRIS,2021-07-13 12:25:27,15.04979868,0.0030083,98.2353,214.5417,242.1986,272.5686,6.7037e-05,8.87e-06,0.0,0 PSLV DEB,1 27216U 01049FL  21194.51768366  .00000887  00000-0  67037-4 0  9991,2 27216  98.2353 214.5417 0030083 242.1986 272.5686 15.04979868 60942,6929.704000000002,95.682,572.4159999999998,530.7230000000002,0.0
